STARLINK-5645           
1 55429U 23014AQ  26068.45075042  .00000463  00000+0  46630-4 0  9999
2 55429  69.9990  85.1733 0003100 267.4686  92.6118 14.98330342171529
ICEYE-X39               
1 60546U 24149CG  26068.72048823  .00003515  00000+0  29320-3 0  9999
2 60546  97.6853 147.0953 0005274  52.5538 307.6164 14.99225125 85219
